STARLINK-36406          
1 67923U 26036V   26065.25002315 -.00013245  00000+0 -60409-4 0  9990
2 67923  42.9966 270.6845 0002018 292.1692 208.8911 15.82032588  3092
STARLINK-36714          
1 67924U 26036W   26065.25002315 -.00042718  00000+0 -20107-3 0  9998
2 67924  42.9968 270.6734 0002304 282.5756 222.7632 15.82040094  3090
STARLINK-36726          
1 67925U 26036X   26065.25002315 -.00044820  00000+0 -21106-3 0  9995
2 67925  42.9979 270.6630 0001927 275.8842 233.7155 15.82050900  3098
STARLINK-36758          
1 67926U 26036Y   26065.25002315 -.00026709  00000+0 -12434-3 0  9996
2 67926  42.9975 270.6520 0002009 283.9811 229.8802 15.82075782  3091
STARLINK-36728          
1 67927U 26036Z   26065.25002315 -.00050058  00000+0 -23635-3 0  9996
2 67927  42.9988 270.6304 0002025 286.0685 236.3785 15.82033153  3096
STARLINK-36771          
1 67928U 26036AA  26065.25002315 -.00006652  00000+0 -29065-4 0  9992
2 67928  42.9978 270.6408 0002134 271.0904 247.0704 15.82024532  3091
STARLINK-36809          
1 67929U 26036AB  26065.25002315  .00006709  00000+0  34367-4 0  9995
2 67929  42.9966 270.6187 0002055 268.5149 258.1958 15.82016523  3092
STARLINK-36865          
1 67930U 26036AC  26065.25002315 -.00028308  00000+0 -13200-3 0  9990
2 67930  42.9972 270.5973 0001978 270.1971 265.0348 15.82068440  3093
STARLINK-36781          
1 67931U 26036AD  26065.25002315 -.00017416  00000+0 -80284-4 0  9996
2 67931  42.9965 270.6090 0001974 284.3715 246.6039 15.82028744  3091
STARLINK-36301          
1 67932U 26037A   26065.25002315 -.01361996  00000+0 -49963-2 0  9991
2 67932  42.9998 219.7487 0001610 274.3635 146.7594 15.89956454  2550
STARLINK-36852          
1 67933U 26037B   26065.25002315 -.01353017  00000+0 -49195-2 0  9994
2 67933  43.0001 219.7419 0001536 274.5694 149.1755 15.90111101  2647
STARLINK-36861          
1 67934U 26037C   26065.25002315 -.01351296  00000+0 -48809-2 0  9993
2 67934  43.0001 219.7341 0001643 274.9971 151.9652 15.90233939  2644
STARLINK-36860          
1 67935U 26037D   26065.25002315 -.01351423  00000+0 -48508-2 0  9992
2 67935  43.0000 219.7261 0001752 276.6879 153.5741 15.90353922  2644
STARLINK-36848          
1 67936U 26037E   26065.25002315 -.01352953  00000+0 -47945-2 0  9996
2 67936  43.0000 219.7094 0001430 273.2289 163.3649 15.90607988  2640
STARLINK-36370          
1 67937U 26037F   26065.25002315 -.01356595  00000+0 -48410-2 0  9991
2 67937  43.0002 219.7177 0001771 276.2280 157.3745 15.90476826  2642
STARLINK-36371          
1 67938U 26037G   26065.25002315 -.01352494  00000+0 -47567-2 0  9998
2 67938  43.0001 219.7021 0001593 276.1496 163.2350 15.90750352  2647
