[{"OBJECT_NAME":"STARLINK-36406","OBJECT_ID":"2026-036V","EPOCH":"2026-03-06T06:00:02.000160","MEAN_MOTION":15.82032588,"ECCENTRICITY":0.00020183,"INCLINATION":42.9966,"RA_OF_ASC_NODE":270.6845,"ARG_OF_PERICENTER":292.1692,"MEAN_ANOMALY":208.8911,"EPHEMERIS_TYPE":0,"CLASSIFICATION_TYPE":"U","NORAD_CAT_ID":67923,"ELEMENT_SET_NO":999,"REV_AT_EPOCH":309,"BSTAR":-6.040899e-5,"MEAN_MOTION_DOT":-0.00013245,"MEAN_MOTION_DDOT":0},{"OBJECT_NAME":"STARLINK-36714","OBJECT_ID":"2026-036W","EPOCH":"2026-03-06T06:00:02.000160","MEAN_MOTION":15.82040094,"ECCENTRICITY":0.00023045,"INCLINATION":42.9968,"RA_OF_ASC_NODE":270.6734,"ARG_OF_PERICENTER":282.5756,"MEAN_ANOMALY":222.7632,"EPHEMERIS_TYPE":0,"CLASSIFICATION_TYPE":"U","NORAD_CAT_ID":67924,"ELEMENT_SET_NO":999,"REV_AT_EPOCH":309,"BSTAR":-0.00020107324,"MEAN_MOTION_DOT":-0.00042718,"MEAN_MOTION_DDOT":0},{"OBJECT_NAME":"STARLINK-36726","OBJECT_ID":"2026-036X","EPOCH":"2026-03-06T06:00:02.000160","MEAN_MOTION":15.820509,"ECCENTRICITY":0.00019277,"INCLINATION":42.9979,"RA_OF_ASC_NODE":270.663,"ARG_OF_PERICENTER":275.8842,"MEAN_ANOMALY":233.7155,"EPHEMERIS_TYPE":0,"CLASSIFICATION_TYPE":"U","NORAD_CAT_ID":67925,"ELEMENT_SET_NO":999,"REV_AT_EPOCH":309,"BSTAR":-0.00021105677,"MEAN_MOTION_DOT":-0.0004482,"MEAN_MOTION_DDOT":0},{"OBJECT_NAME":"STARLINK-36758","OBJECT_ID":"2026-036Y","EPOCH":"2026-03-06T06:00:02.000160","MEAN_MOTION":15.82075782,"ECCENTRICITY":0.00020091,"INCLINATION":42.9975,"RA_OF_ASC_NODE":270.652,"ARG_OF_PERICENTER":283.9811,"MEAN_ANOMALY":229.8802,"EPHEMERIS_TYPE":0,"CLASSIFICATION_TYPE":"U","NORAD_CAT_ID":67926,"ELEMENT_SET_NO":999,"REV_AT_EPOCH":309,"BSTAR":-0.00012433722,"MEAN_MOTION_DOT":-0.00026709,"MEAN_MOTION_DDOT":0},{"OBJECT_NAME":"STARLINK-36728","OBJECT_ID":"2026-036Z","EPOCH":"2026-03-06T06:00:02.000160","MEAN_MOTION":15.82033153,"ECCENTRICITY":0.00020254,"INCLINATION":42.9988,"RA_OF_ASC_NODE":270.6304,"ARG_OF_PERICENTER":286.0685,"MEAN_ANOMALY":236.3785,"EPHEMERIS_TYPE":0,"CLASSIFICATION_TYPE":"U","NORAD_CAT_ID":67927,"ELEMENT_SET_NO":999,"REV_AT_EPOCH":309,"BSTAR":-0.00023635246,"MEAN_MOTION_DOT":-0.00050058,"MEAN_MOTION_DDOT":0},{"OBJECT_NAME":"STARLINK-36771","OBJECT_ID":"2026-036AA","EPOCH":"2026-03-06T06:00:02.000160","MEAN_MOTION":15.82024532,"ECCENTRICITY":0.0002134,"INCLINATION":42.9978,"RA_OF_ASC_NODE":270.6408,"ARG_OF_PERICENTER":271.0904,"MEAN_ANOMALY":247.0704,"EPHEMERIS_TYPE":0,"CLASSIFICATION_TYPE":"U","NORAD_CAT_ID":67928,"ELEMENT_SET_NO":999,"REV_AT_EPOCH":309,"BSTAR":-2.9064886e-5,"MEAN_MOTION_DOT":-6.652e-5,"MEAN_MOTION_DDOT":0},{"OBJECT_NAME":"STARLINK-36809","OBJECT_ID":"2026-036AB","EPOCH":"2026-03-06T06:00:02.000160","MEAN_MOTION":15.82016523,"ECCENTRICITY":0.00020553,"INCLINATION":42.9966,"RA_OF_ASC_NODE":270.6187,"ARG_OF_PERICENTER":268.5149,"MEAN_ANOMALY":258.1958,"EPHEMERIS_TYPE":0,"CLASSIFICATION_TYPE":"U","NORAD_CAT_ID":67929,"ELEMENT_SET_NO":999,"REV_AT_EPOCH":309,"BSTAR":3.4366642e-5,"MEAN_MOTION_DOT":6.709e-5,"MEAN_MOTION_DDOT":0},{"OBJECT_NAME":"STARLINK-36865","OBJECT_ID":"2026-036AC","EPOCH":"2026-03-06T06:00:02.000160","MEAN_MOTION":15.8206844,"ECCENTRICITY":0.00019787,"INCLINATION":42.9972,"RA_OF_ASC_NODE":270.5973,"ARG_OF_PERICENTER":270.1971,"MEAN_ANOMALY":265.0348,"EPHEMERIS_TYPE":0,"CLASSIFICATION_TYPE":"U","NORAD_CAT_ID":67930,"ELEMENT_SET_NO":999,"REV_AT_EPOCH":309,"BSTAR":-0.00013200066,"MEAN_MOTION_DOT":-0.00028308,"MEAN_MOTION_DDOT":0},{"OBJECT_NAME":"STARLINK-36781","OBJECT_ID":"2026-036AD","EPOCH":"2026-03-06T06:00:02.000160","MEAN_MOTION":15.82028744,"ECCENTRICITY":0.00019744,"INCLINATION":42.9965,"RA_OF_ASC_NODE":270.609,"ARG_OF_PERICENTER":284.3715,"MEAN_ANOMALY":246.6039,"EPHEMERIS_TYPE":0,"CLASSIFICATION_TYPE":"U","NORAD_CAT_ID":67931,"ELEMENT_SET_NO":999,"REV_AT_EPOCH":309,"BSTAR":-8.0283906e-5,"MEAN_MOTION_DOT":-0.00017416,"MEAN_MOTION_DDOT":0},{"OBJECT_NAME":"STARLINK-36301","OBJECT_ID":"2026-037A","EPOCH":"2026-03-06T06:00:02.000160","MEAN_MOTION":15.89956454,"ECCENTRICITY":0.00016108,"INCLINATION":42.9998,"RA_OF_ASC_NODE":219.7487,"ARG_OF_PERICENTER":274.3635,"MEAN_ANOMALY":146.7594,"EPHEMERIS_TYPE":0,"CLASSIFICATION_TYPE":"U","NORAD_CAT_ID":67932,"ELEMENT_SET_NO":999,"REV_AT_EPOCH":255,"BSTAR":-0.0049962597,"MEAN_MOTION_DOT":-0.01361996,"MEAN_MOTION_DDOT":0},{"OBJECT_NAME":"STARLINK-36852","OBJECT_ID":"2026-037B","EPOCH":"2026-03-06T06:00:02.000160","MEAN_MOTION":15.90111101,"ECCENTRICITY":0.00015361,"INCLINATION":43.0001,"RA_OF_ASC_NODE":219.7419,"ARG_OF_PERICENTER":274.5694,"MEAN_ANOMALY":149.1755,"EPHEMERIS_TYPE":0,"CLASSIFICATION_TYPE":"U","NORAD_CAT_ID":67933,"ELEMENT_SET_NO":999,"REV_AT_EPOCH":264,"BSTAR":-0.004919506,"MEAN_MOTION_DOT":-0.01353017,"MEAN_MOTION_DDOT":0},{"OBJECT_NAME":"STARLINK-36861","OBJECT_ID":"2026-037C","EPOCH":"2026-03-06T06:00:02.000160","MEAN_MOTION":15.90233939,"ECCENTRICITY":0.00016439,"INCLINATION":43.0001,"RA_OF_ASC_NODE":219.7341,"ARG_OF_PERICENTER":274.9971,"MEAN_ANOMALY":151.9652,"EPHEMERIS_TYPE":0,"CLASSIFICATION_TYPE":"U","NORAD_CAT_ID":67934,"ELEMENT_SET_NO":999,"REV_AT_EPOCH":264,"BSTAR":-0.0048809141,"MEAN_MOTION_DOT":-0.01351296,"MEAN_MOTION_DDOT":0},{"OBJECT_NAME":"STARLINK-36860","OBJECT_ID":"2026-037D","EPOCH":"2026-03-06T06:00:02.000160","MEAN_MOTION":15.90353922,"ECCENTRICITY":0.00017527,"INCLINATION":43,"RA_OF_ASC_NODE":219.7261,"ARG_OF_PERICENTER":276.6879,"MEAN_ANOMALY":153.5741,"EPHEMERIS_TYPE":0,"CLASSIFICATION_TYPE":"U","NORAD_CAT_ID":67935,"ELEMENT_SET_NO":999,"REV_AT_EPOCH":264,"BSTAR":-0.0048508414,"MEAN_MOTION_DOT":-0.01351423,"MEAN_MOTION_DDOT":0},{"OBJECT_NAME":"STARLINK-36848","OBJECT_ID":"2026-037E","EPOCH":"2026-03-06T06:00:02.000160","MEAN_MOTION":15.90607988,"ECCENTRICITY":0.00014308,"INCLINATION":43,"RA_OF_ASC_NODE":219.7094,"ARG_OF_PERICENTER":273.2289,"MEAN_ANOMALY":163.3649,"EPHEMERIS_TYPE":0,"CLASSIFICATION_TYPE":"U","NORAD_CAT_ID":67936,"ELEMENT_SET_NO":999,"REV_AT_EPOCH":264,"BSTAR":-0.0047944752,"MEAN_MOTION_DOT":-0.01352953,"MEAN_MOTION_DDOT":0},{"OBJECT_NAME":"STARLINK-36370","OBJECT_ID":"2026-037F","EPOCH":"2026-03-06T06:00:02.000160","MEAN_MOTION":15.90476826,"ECCENTRICITY":0.00017715,"INCLINATION":43.0002,"RA_OF_ASC_NODE":219.7177,"ARG_OF_PERICENTER":276.228,"MEAN_ANOMALY":157.3745,"EPHEMERIS_TYPE":0,"CLASSIFICATION_TYPE":"U","NORAD_CAT_ID":67937,"ELEMENT_SET_NO":999,"REV_AT_EPOCH":264,"BSTAR":-0.0048409721,"MEAN_MOTION_DOT":-0.01356595,"MEAN_MOTION_DDOT":0},{"OBJECT_NAME":"STARLINK-36371","OBJECT_ID":"2026-037G","EPOCH":"2026-03-06T06:00:02.000160","MEAN_MOTION":15.90750352,"ECCENTRICITY":0.00015939,"INCLINATION":43.0001,"RA_OF_ASC_NODE":219.7021,"ARG_OF_PERICENTER":276.1496,"MEAN_ANOMALY":163.235,"EPHEMERIS_TYPE":0,"CLASSIFICATION_TYPE":"U","NORAD_CAT_ID":67938,"ELEMENT_SET_NO":999,"REV_AT_EPOCH":264,"BSTAR":-0.0047567467,"MEAN_MOTION_DOT":-0.01352494,"MEAN_MOTION_DDOT":0}]
